      2.10          N: GNSS NAV DATA                        RINEX VERSION / TYPE
fic2rin                                 01/13/2024 00:17:52 PGM / RUN BY / DATE
                                                            END OF HEADER
8  24  1 12  1 59 44.0 -.161650124937D-03 -.193267624127D-11  .000000000000D+00
     .150000000000D+02  .110250000000D+03  .428124975981D-08 -.243971020850D+01
     .551529228687D-05  .918203091715D-02  .122487545013D-04  .515357888603D+04
     .439184000000D+06 -.614672899246D-07 -.283690828555D+01 -.130385160446D-06
     .955667769181D+00  .143062500000D+03  .296246120503D+00 -.768817738630D-08
    -.131076888450D-09  .100000000000D+01  .229600000000D+04  .000000000000D+00
     .240000000000D+01  .000000000000D+00  .512227416039D-08  .150000000000D+02
     .432000000000D+06  .400000000000D+01
20 24  1 12  6  0  0.0  .391955487430D-03 -.193267624127D-11  .000000000000D+00
     .310000000000D+02 -.103281250000D+03  .496556397853D-08 -.173327364823D+01
    -.523775815964D-05  .399545463733D-02  .225380063057D-06  .515369792747D+04
     .453600000000D+06  .100582838058D-06 -.884609918914D+00 -.260770320892D-07
     .951827170348D+00  .368843750000D+03 -.267742348448D+01 -.857428572485D-08
    -.147506144223D-09  .100000000000D+01  .229600000000D+04  .000000000000D+00
     .240000000000D+01  .000000000000D+00 -.838190317154D-08  .310000000000D+02
     .446400000000D+06  .400000000000D+01
26 24  1 12  6  0  0.0  .201099552214D-03 -.352429196937D-11  .000000000000D+00
     .350000000000D+02 -.167812500000D+02  .547272796109D-08  .147700899691D+01
    -.769272446632D-06  .875921500847D-02  .706687569618D-05  .515355948257D+04
     .453600000000D+06 -.745058059692D-07  .235503274452D+01  .931322574615D-07
     .931847312552D+00  .230531250000D+03  .516798831980D+00 -.839284959587D-08
    -.656813073187D-09  .100000000000D+01  .229600000000D+04  .000000000000D+00
     .240000000000D+01  .000000000000D+00  .698491930962D-08  .350000000000D+02
     .446400000000D+06  .400000000000D+01
30 24  1 12  6  0  0.0 -.446463469416D-03  .454747350886D-11  .000000000000D+00
     .840000000000D+02  .209687500000D+02  .537808116152D-08  .302220650143D+01
     .100582838058D-05  .668238662183D-02  .670924782753D-05  .515369837761D+04
     .453600000000D+06 -.149011611938D-07  .138687810934D+01 -.987201929092D-07
     .934973139853D+00  .236406250000D+03 -.254849593483D+01 -.818498379457D-08
     .517878714584D-09  .100000000000D+01  .229600000000D+04  .000000000000D+00
     .240000000000D+01  .000000000000D+00  .372529029846D-08  .840000000000D+02
     .446400000000D+06  .400000000000D+01
17 24  1 12  6  0  0.0  .720070675015D-03 -.909494701773D-12  .000000000000D+00
     .540000000000D+02  .116125000000D+03  .397195116199D-08 -.279679525615D+00
     .588223338127D-05  .137015846558D-01  .118762254715D-04  .515365721130D+04
     .453600000000D+06 -.283122062683D-06 -.274449352685D+01 -.931322574615D-08
     .971361617865D+00  .159843750000D+03 -.134668383531D+01 -.785211278630D-08
    -.875036448780D-10  .100000000000D+01  .229600000000D+04  .000000000000D+00
     .240000000000D+01  .000000000000D+00 -.111758708954D-07  .540000000000D+02
     .446400000000D+06  .400000000000D+01
19 24  1 12  6  0  0.0  .425382982939D-03  .522959453519D-11  .000000000000D+00
     .530000000000D+02  .125062500000D+03  .392873507616D-08  .176484277962D+01
     .649504363537D-05  .940498139244D-02  .112559646368D-04  .515368516350D+04
     .453600000000D+06  .707805156708D-07 -.270011332926D+01  .141561031342D-06
     .970496168695D+00  .165375000000D+03  .246920623576D+01 -.753888545341D-08
    -.185722021782D-09  .100000000000D+01  .229600000000D+04  .000000000000D+00
     .240000000000D+01  .000000000000D+00 -.153668224812D-07  .530000000000D+02
     .446400000000D+06  .400000000000D+01
16 24  1 12  6  0  0.0 -.385847408324D-03  .773070496507D-11  .000000000000D+00
     .112000000000D+03 -.618750000000D+01  .461340645261D-08  .671564958610D+00
    -.134110450745D-06  .139377333689D-01  .821053981781D-05  .515370759392D+04
     .453600000000D+06 -.162050127983D-06  .251796642032D+01  .130385160446D-06
     .962944279820D+00  .224250000000D+03  .815172648333D+00 -.802533428739D-08
    -.767531970787D-09  .100000000000D+01  .229600000000D+04  .000000000000D+00
     .340000000000D+01  .000000000000D+00 -.102445483208D-07  .112000000000D+03
     .446400000000D+06  .400000000000D+01
23 24  1 12  6  0  0.0  .133723020554D-03  .738964445191D-11  .000000000000D+00
     .136000000000D+03 -.132218750000D+03  .426803492364D-08  .284773297233D+01
    -.680238008499D-05  .396666605957D-02  .274553894997D-05  .515370507622D+04
     .453600000000D+06 -.111758708954D-06 -.739466865946D+00 -.447034835815D-07
     .977272591029D+00  .335906250000D+03 -.298424119815D+01 -.812891003030D-08
    -.280725979078D-09  .100000000000D+01  .229600000000D+04  .000000000000D+00
     .240000000000D+01  .000000000000D+00 -.838190317154D-08  .136000000000D+03
     .446400000000D+06  .400000000000D+01
13 24  1 12  6  0  0.0  .615017954260D-03  .375166564481D-11  .000000000000D+00
     .860000000000D+02 -.649687500000D+02  .401302430143D-08 -.641393506465D+00
    -.340864062309D-05  .774773512967D-02  .114720314741D-04  .515366851234D+04
     .453600000000D+06  .130385160446D-07  .476010977482D+00  .117346644402D-06
     .971113445516D+00  .163625000000D+03  .947600283607D+00 -.772996484121D-08
     .362515100209D-09  .100000000000D+01  .229600000000D+04  .000000000000D+00
     .240000000000D+01  .000000000000D+00 -.111758708954D-07  .860000000000D+02
     .446400000000D+06  .400000000000D+01
14 24  1 12  6  0  0.0  .296386890113D-03  .102318153949D-10  .000000000000D+00
     .400000000000D+02 -.195937500000D+02  .506628245957D-08  .241989285018D+01
    -.955536961555D-06  .383352558129D-02  .731274485588D-05  .515367450333D+04
     .453600000000D+06 -.102445483208D-06  .245766906399D+01  .372529029846D-08
     .946655412615D+00  .229906250000D+03 -.296387084948D+01 -.813641034272D-08
    -.595739100639D-09  .100000000000D+01  .229600000000D+04  .000000000000D+00
     .240000000000D+01  .000000000000D+00 -.791624188423D-08  .552000000000D+03
     .446400000000D+06  .400000000000D+01
11 24  1 12  6  0  0.0 -.536730047315D-03 -.140971678775D-10  .000000000000D+00
     .125000000000D+03  .103031250000D+03  .462983570838D-08 -.110971421326D+01
     .543333590031D-05  .126771384384D-02  .914558768272D-06  .515365041733D+04
     .453600000000D+06 -.931322574615D-08 -.171007540577D+01  .298023223877D-07
     .965868195167D+00  .364468750000D+03 -.248845871605D+01 -.838856370306D-08
     .291440711104D-09  .100000000000D+01  .229600000000D+04  .000000000000D+00
     .240000000000D+01  .000000000000D+00 -.838190317154D-08  .381000000000D+03
     .446400000000D+06  .400000000000D+01
28 24  1 12  6  0  0.0 -.962628982961D-04 -.112549969344D-10  .000000000000D+00
     .150000000000D+03  .180937500000D+02  .489091801208D-08  .163147098872D+01
     .908970832825D-06  .740845804103D-03  .675953924656D-05  .515355796432D+04
     .453600000000D+06  .223517417908D-07  .134955966308D+01  .372529029846D-07
     .960983978371D+00  .251218750000D+03  .171125864902D+01 -.805926427213D-08
     .501092301077D-09  .100000000000D+01  .229600000000D+04  .000000000000D+00
     .240000000000D+01  .000000000000D+00 -.931322574615D-08  .918000000000D+03
     .446400000000D+06  .400000000000D+01
18 24  1 12  6  0  0.0 -.530015677214D-03 -.932232069317D-11  .000000000000D+00
     .930000000000D+02  .997187500000D+02  .444482800207D-08 -.237276419086D+01
     .517442822456D-05  .382757687476D-02  .804662704468D-06  .515363224220D+04
     .453600000000D+06  .111758708954D-07 -.174019096566D+01 -.353902578354D-07
     .974240981505D+00  .375468750000D+03 -.301961085759D+01 -.826927301984D-08
     .307512809143D-09  .100000000000D+01  .229600000000D+04  .000000000000D+00
     .240000000000D+01  .000000000000D+00 -.838190317154D-08  .861000000000D+03
     .446400000000D+06  .400000000000D+01
24 24  1 12  6  0  0.0 -.412203837186D-03 -.727595761418D-11  .000000000000D+00
     .142000000000D+03  .282500000000D+02  .531343561164D-08 -.210815486024D+01
     .144354999065D-05  .150448991917D-01  .685267150402D-05  .515372560501D+04
     .453600000000D+06  .149011611938D-06  .128951533159D+01 -.102445483208D-06
     .933551471675D+00  .230875000000D+03  .962726476188D+00 -.811390940547D-08
     .667884962947D-09  .100000000000D+01  .229600000000D+04  .000000000000D+00
     .685000000000D+01  .000000000000D+00  .232830643654D-08  .142000000000D+03
     .446400000000D+06  .400000000000D+01
16 24  1 12  5 59 44.0 -.385848339647D-03  .773070496507D-11  .000000000000D+00
     .000000000000D+00 -.618750000000D+01  .461304929488D-08  .669231177102D+00
    -.132247805595D-06  .139377326705D-01  .821053981781D-05  .515370760345D+04
     .453584000000D+06 -.162050127983D-06  .251796655491D+01  .130385160446D-06
     .962944306153D+00  .224250000000D+03  .815172630778D+00 -.802533428739D-08
    -.767531970787D-09  .100000000000D+01  .229600000000D+04  .000000000000D+00
     .240000000000D+01  .000000000000D+00 -.102445483208D-07  .000000000000D+00
     .451200000000D+06  .400000000000D+01
30 24  1 12  5 59 44.0 -.446463935077D-03  .454747350886D-11  .000000000000D+00
     .160000000000D+02  .209687500000D+02  .537808116152D-08  .301987255461D+01
     .100582838058D-05  .668238440994D-02  .670738518238D-05  .515369838333D+04
     .453584000000D+06 -.149011611938D-07  .138687825417D+01 -.987201929092D-07
     .934973135464D+00  .236406250000D+03 -.254849573734D+01 -.818498379457D-08
     .517878714584D-09  .100000000000D+01  .229600000000D+04  .000000000000D+00
     .240000000000D+01  .000000000000D+00  .372529029846D-08  .160000000000D+02
     .451290000000D+06  .400000000000D+01
